{"fetched_at":"2026-07-14T17:40:48.257Z","source":"https://celestrak.org/NORAD/elements/gp.php?NAME=HULIANWANG&FORMAT=JSON","constellation":"guowang","records":[{"OBJECT_NAME":"HULIANWANG DIGUI-140","OBJECT_ID":"2026-007D","EPOCH":"2026-07-13T17:15:46.343232","CLASSIFICATION_TYPE":"U","MEAN_MOTION":13.29326,"ECCENTRICITY":0.0000884,"INCLINATION":50.0069,"RA_OF_ASC_NODE":350.8814,"ARG_OF_PERICENTER":111.741,"MEAN_ANOMALY":248.3556,"EPHEMERIS_TYPE":0,"NORAD_CAT_ID":67438,"ELEMENT_SET_NO":999,"REV_AT_EPOCH":2431,"BSTAR":0.000039451,"MEAN_MOTION_DOT":-0.00000106,"MEAN_MOTION_DDOT":0},{"OBJECT_NAME":"HULIANWANG DIGUI-141","OBJECT_ID":"2026-007E","EPOCH":"2026-07-13T16:27:36.688320","CLASSIFICATION_TYPE":"U","MEAN_MOTION":13.29326794,"ECCENTRICITY":0.0000885,"INCLINATION":50.0064,"RA_OF_ASC_NODE":350.6974,"ARG_OF_PERICENTER":110.6347,"MEAN_ANOMALY":249.462,"EPHEMERIS_TYPE":0,"NORAD_CAT_ID":67439,"ELEMENT_SET_NO":999,"REV_AT_EPOCH":2431,"BSTAR":0.000020482,"MEAN_MOTION_DOT":-0.00000115,"MEAN_MOTION_DDOT":0},{"OBJECT_NAME":"HULIANWANG DIGUI-142","OBJECT_ID":"2026-007F","EPOCH":"2026-07-13T16:15:37.532736","CLASSIFICATION_TYPE":"U","MEAN_MOTION":13.29326507,"ECCENTRICITY":0.0000891,"INCLINATION":50.0139,"RA_OF_ASC_NODE":350.7688,"ARG_OF_PERICENTER":108.761,"MEAN_ANOMALY":251.3359,"EPHEMERIS_TYPE":0,"NORAD_CAT_ID":67440,"ELEMENT_SET_NO":999,"REV_AT_EPOCH":2431,"BSTAR":0.0000055019,"MEAN_MOTION_DOT":-0.00000122,"MEAN_MOTION_DDOT":0},{"OBJECT_NAME":"HULIANWANG DIGUI-143","OBJECT_ID":"2026-007G","EPOCH":"2026-07-13T19:40:10.456608","CLASSIFICATION_TYPE":"U","MEAN_MOTION":13.29324934,"ECCENTRICITY":0.0000743,"INCLINATION":50.0122,"RA_OF_ASC_NODE":350.1578,"ARG_OF_PERICENTER":112.1503,"MEAN_ANOMALY":247.9448,"EPHEMERIS_TYPE":0,"NORAD_CAT_ID":67441,"ELEMENT_SET_NO":999,"REV_AT_EPOCH":2433,"BSTAR":0.000014294,"MEAN_MOTION_DOT":-0.00000117,"MEAN_MOTION_DDOT":0},{"OBJECT_NAME":"HULIANWANG DIGUI-144","OBJECT_ID":"2026-007H","EPOCH":"2026-07-13T19:27:52.897824","CLASSIFICATION_TYPE":"U","MEAN_MOTION":13.29329134,"ECCENTRICITY":0.0000894,"INCLINATION":50.0106,"RA_OF_ASC_NODE":350.0981,"ARG_OF_PERICENTER":115.167,"MEAN_ANOMALY":244.9295,"EPHEMERIS_TYPE":0,"NORAD_CAT_ID":67442,"ELEMENT_SET_NO":999,"REV_AT_EPOCH":2433,"BSTAR":0.000014866,"MEAN_MOTION_DOT":-0.00000117,"MEAN_MOTION_DDOT":0},{"OBJECT_NAME":"HULIANWANG DIGUI-145","OBJECT_ID":"2026-007J","EPOCH":"2026-07-13T15:39:36.108000","CLASSIFICATION_TYPE":"U","MEAN_MOTION":13.29325737,"ECCENTRICITY":0.000085,"INCLINATION":50.0111,"RA_OF_ASC_NODE":350.6004,"ARG_OF_PERICENTER":109.8079,"MEAN_ANOMALY":250.2885,"EPHEMERIS_TYPE":0,"NORAD_CAT_ID":67443,"ELEMENT_SET_NO":999,"REV_AT_EPOCH":2431,"BSTAR":0.000031245,"MEAN_MOTION_DOT":-0.0000011,"MEAN_MOTION_DDOT":0},{"OBJECT_NAME":"HULIANWANG DIGUI-146","OBJECT_ID":"2026-013A","EPOCH":"2026-07-14T05:21:55.361952","CLASSIFICATION_TYPE":"U","MEAN_MOTION":13.29325116,"ECCENTRICITY":0.0001354,"INCLINATION":50.0069,"RA_OF_ASC_NODE":258.9404,"ARG_OF_PERICENTER":215.5375,"MEAN_ANOMALY":144.5407,"EPHEMERIS_TYPE":0,"NORAD_CAT_ID":67522,"ELEMENT_SET_NO":999,"REV_AT_EPOCH":2364,"BSTAR":0.00011738,"MEAN_MOTION_DOT":-7e-7,"MEAN_MOTION_DDOT":0},{"OBJECT_NAME":"HULIANWANG DIGUI-147","OBJECT_ID":"2026-013B","EPOCH":"2026-07-13T12:55:22.105056","CLASSIFICATION_TYPE":"U","MEAN_MOTION":13.29329147,"ECCENTRICITY":0.0001233,"INCLINATION":50.0056,"RA_OF_ASC_NODE":261.2756,"ARG_OF_PERICENTER":212.8242,"MEAN_ANOMALY":147.2554,"EPHEMERIS_TYPE":0,"NORAD_CAT_ID":67523,"ELEMENT_SET_NO":999,"REV_AT_EPOCH":2355,"BSTAR":-0.000148,"MEAN_MOTION_DOT":-0.00000193,"MEAN_MOTION_DDOT":0},{"OBJECT_NAME":"HULIANWANG DIGUI-148","OBJECT_ID":"2026-013C","EPOCH":"2026-07-14T04:57:37.016352","CLASSIFICATION_TYPE":"U","MEAN_MOTION":13.293267,"ECCENTRICITY":0.0001256,"INCLINATION":50.0084,"RA_OF_ASC_NODE":258.8678,"ARG_OF_PERICENTER":215.2659,"MEAN_ANOMALY":144.813,"EPHEMERIS_TYPE":0,"NORAD_CAT_ID":67524,"ELEMENT_SET_NO":999,"REV_AT_EPOCH":2364,"BSTAR":0.0001139,"MEAN_MOTION_DOT":-7.1e-7,"MEAN_MOTION_DDOT":0},{"OBJECT_NAME":"HULIANWANG DIGUI-149","OBJECT_ID":"2026-013D","EPOCH":"2026-07-14T04:45:47.789856","CLASSIFICATION_TYPE":"U","MEAN_MOTION":13.29331494,"ECCENTRICITY":0.0001487,"INCLINATION":50.0076,"RA_OF_ASC_NODE":258.8166,"ARG_OF_PERICENTER":216.4807,"MEAN_ANOMALY":143.5964,"EPHEMERIS_TYPE":0,"NORAD_CAT_ID":67525,"ELEMENT_SET_NO":999,"REV_AT_EPOCH":2364,"BSTAR":0.00009307,"MEAN_MOTION_DOT":-8.1e-7,"MEAN_MOTION_DDOT":0},{"OBJECT_NAME":"HULIANWANG DIGUI-150","OBJECT_ID":"2026-013E","EPOCH":"2026-07-13T10:19:10.557984","CLASSIFICATION_TYPE":"U","MEAN_MOTION":13.29325664,"ECCENTRICITY":0.00013173,"INCLINATION":50.0045,"RA_OF_ASC_NODE":261.3682,"ARG_OF_PERICENTER":212.6644,"MEAN_ANOMALY":147.4147,"EPHEMERIS_TYPE":0,"NORAD_CAT_ID":67526,"ELEMENT_SET_NO":999,"REV_AT_EPOCH":2356,"BSTAR":0.00013664601,"MEAN_MOTION_DOT":-6.1e-7,"MEAN_MOTION_DDOT":0},{"OBJECT_NAME":"HULIANWANG DIGUI-151","OBJECT_ID":"2026-013F","EPOCH":"2026-07-13T10:31:09.736032","CLASSIFICATION_TYPE":"U","MEAN_MOTION":13.29327687,"ECCENTRICITY":0.0001278,"INCLINATION":50.0104,"RA_OF_ASC_NODE":261.4768,"ARG_OF_PERICENTER":211.4969,"MEAN_ANOMALY":148.5826,"EPHEMERIS_TYPE":0,"NORAD_CAT_ID":67527,"ELEMENT_SET_NO":999,"REV_AT_EPOCH":2354,"BSTAR":-0.000071801,"MEAN_MOTION_DOT":-0.00000157,"MEAN_MOTION_DDOT":0},{"OBJECT_NAME":"HULIANWANG DIGUI-152","OBJECT_ID":"2026-013G","EPOCH":"2026-07-13T10:07:02.356320","CLASSIFICATION_TYPE":"U","MEAN_MOTION":13.29332341,"ECCENTRICITY":0.00012807,"INCLINATION":50.0033,"RA_OF_ASC_NODE":261.3145,"ARG_OF_PERICENTER":213.8477,"MEAN_ANOMALY":146.2314,"EPHEMERIS_TYPE":0,"NORAD_CAT_ID":67528,"ELEMENT_SET_NO":999,"REV_AT_EPOCH":2354,"BSTAR":0.000090659422,"MEAN_MOTION_DOT":-8.2e-7,"MEAN_MOTION_DDOT":0},{"OBJECT_NAME":"HULIANWANG DIGUI-153","OBJECT_ID":"2026-013H","EPOCH":"2026-07-13T13:31:38.400096","CLASSIFICATION_TYPE":"U","MEAN_MOTION":13.29323625,"ECCENTRICITY":0.0001333,"INCLINATION":50.0032,"RA_OF_ASC_NODE":260.7343,"ARG_OF_PERICENTER":215.8935,"MEAN_ANOMALY":144.1847,"EPHEMERIS_TYPE":0,"NORAD_CAT_ID":67529,"ELEMENT_SET_NO":999,"REV_AT_EPOCH":2355,"BSTAR":0.000068163,"MEAN_MOTION_DOT":-9.2e-7,"MEAN_MOTION_DDOT":0},{"OBJECT_NAME":"HULIANWANG DIGUI-154","OBJECT_ID":"2026-013J","EPOCH":"2026-07-13T13:19:28.856640","CLASSIFICATION_TYPE":"U","MEAN_MOTION":13.2933211,"ECCENTRICITY":0.0001249,"INCLINATION":50.0057,"RA_OF_ASC_NODE":260.7296,"ARG_OF_PERICENTER":213.3511,"MEAN_ANOMALY":146.7282,"EPHEMERIS_TYPE":0,"NORAD_CAT_ID":67530,"ELEMENT_SET_NO":999,"REV_AT_EPOCH":2355,"BSTAR":0.00010282,"MEAN_MOTION_DOT":-7.6e-7,"MEAN_MOTION_DDOT":0},{"OBJECT_NAME":"HULIANWANG DIGUI-155","OBJECT_ID":"2026-047A","EPOCH":"2026-07-13T14:48:36.250272","CLASSIFICATION_TYPE":"U","MEAN_MOTION":13.29333786,"ECCENTRICITY":0.0000878,"INCLINATION":50.0048,"RA_OF_ASC_NODE":321.5927,"ARG_OF_PERICENTER":194.4983,"MEAN_ANOMALY":165.5864,"EPHEMERIS_TYPE":0,"NORAD_CAT_ID":68129,"ELEMENT_SET_NO":999,"REV_AT_EPOCH":1658,"BSTAR":0.000047076,"MEAN_MOTION_DOT":-0.00000102,"MEAN_MOTION_DDOT":0}]}
