HULIANWANG DIGUI-140    
1 67438U 26007D   26194.71928638 -.00000106  00000+0  39451-4 0  9992
2 67438  50.0069 350.8814 0000884 111.7410 248.3556 13.29326000 24313
HULIANWANG DIGUI-141    
1 67439U 26007E   26194.68584130 -.00000115  00000+0  20482-4 0  9998
2 67439  50.0064 350.6974 0000885 110.6347 249.4620 13.29326794 24316
HULIANWANG DIGUI-142    
1 67440U 26007F   26194.67751774 -.00000122  00000+0  55019-5 0  9992
2 67440  50.0139 350.7688 0000891 108.7610 251.3359 13.29326507 24315
HULIANWANG DIGUI-143    
1 67441U 26007G   26194.81956547 -.00000117  00000+0  14294-4 0  9997
2 67441  50.0122 350.1578 0000743 112.1503 247.9448 13.29324934 24330
HULIANWANG DIGUI-144    
1 67442U 26007H   26194.81102891 -.00000117  00000+0  14866-4 0  9998
2 67442  50.0106 350.0981 0000894 115.1670 244.9295 13.29329134 24339
HULIANWANG DIGUI-145    
1 67443U 26007J   26194.65250125 -.00000110  00000+0  31245-4 0  9998
2 67443  50.0111 350.6004 0000850 109.8079 250.2885 13.29325737 24311
HULIANWANG DIGUI-146    
1 67522U 26013A   26195.22355743 -.00000070  00000+0  11738-3 0  9998
2 67522  50.0069 258.9404 0001354 215.5375 144.5407 13.29325116 23640
HULIANWANG DIGUI-147    
1 67523U 26013B   26194.53845029 -.00000193  00000+0 -14800-3 0  9993
2 67523  50.0056 261.2756 0001233 212.8242 147.2554 13.29329147 23554
HULIANWANG DIGUI-148    
1 67524U 26013C   26195.20667843 -.00000071  00000+0  11390-3 0  9990
2 67524  50.0084 258.8678 0001256 215.2659 144.8130 13.29326700 23640
HULIANWANG DIGUI-149    
1 67525U 26013D   26195.19846979 -.00000081  00000+0  93070-4 0  9995
2 67525  50.0076 258.8166 0001487 216.4807 143.5964 13.29331494 23645
HULIANWANG DIGUI-150    
1 67526U 26013E   26194.42998331 -.00000061  00000+0  13665-3 0  9990
2 67526  50.0045 261.3682 0001317 212.6644 147.4147 13.29325664 23562
HULIANWANG DIGUI-151    
1 67527U 26013F   26194.43830713 -.00000157  00000+0 -71801-4 0  9995
2 67527  50.0104 261.4768 0001278 211.4969 148.5826 13.29327687 23549
HULIANWANG DIGUI-152    
1 67528U 26013G   26194.42155505 -.00000082  00000+0  90659-4 0  9992
2 67528  50.0033 261.3145 0001280 213.8477 146.2314 13.29332341 23542
HULIANWANG DIGUI-153    
1 67529U 26013H   26194.56363889 -.00000092  00000+0  68163-4 0  9990
2 67529  50.0032 260.7343 0001333 215.8935 144.1847 13.29323625 23559
HULIANWANG DIGUI-154    
1 67530U 26013J   26194.55519510 -.00000076  00000+0  10282-3 0  9995
2 67530  50.0057 260.7296 0001249 213.3511 146.7282 13.29332110 23554
HULIANWANG DIGUI-155    
1 68129U 26047A   26194.61708623 -.00000102  00000+0  47076-4 0  9991
2 68129  50.0048 321.5927 0000878 194.4983 165.5864 13.29333786 16585
